NORAD_CAT_ID,OBJECT_NAME,OBJECT_TYPE,EPOCH,MEAN_MOTION,ECCENTRICITY,INCLINATION,RA_OF_ASC_NODE,ARG_OF_PERICENTER,MEAN_ANOMALY,BSTAR,MEAN_MOTION_DOT,MEAN_MOTION_DDOT,TLE_LINE0,TLE_LINE1,TLE_LINE2,SEMIMAJOR_AXIS,PERIOD,APOGEE,PERIGEE,DECAYED
51126.0,STARLINK-3386,PAYLOAD,2023-10-04 03:23:02,15.0884139,0.0001793,53.2148,323.493,85.6862,274.4335,0.00025687,3.803e-05,0.0,0 STARLINK-3386,1 51126U 22005Y   23277.14100556  .00003803  00000-0  25687-3 0  9992,2 51126  53.2148 323.4930 0001793  85.6862 274.4335 15.08841390 95864,6917.876,95.437,540.982,538.501,0.0
51126.0,STARLINK-3386,PAYLOAD,2023-10-04 09:44:35,15.08850491,0.0001583,53.2153,322.3032,93.4509,266.6665,0.00043712,6.678e-05,0.0,0 STARLINK-3386,1 51126U 22005Y   23277.40596188  .00006678  00000-0  43712-3 0  9993,2 51126  53.2153 322.3032 0001583  93.4509 266.6665 15.08850491 94795,6917.848,95.437,540.808,538.618,0.0
51126.0,STARLINK-3386,PAYLOAD,2023-10-04 14:30:44,15.0885896,0.0001661,53.2164,321.41,96.2051,263.913,0.00067238,0.00010435,0.0,0 STARLINK-3386,1 51126U 22005Y   23277.60467880  .00010435  00000-0  67238-3 0  9996,2 51126  53.2164 321.4100 0001661  96.2051 263.9130 15.08858960 95936,6917.822,95.436,540.836,538.538,0.0
51126.0,STARLINK-3386,PAYLOAD,2023-10-05 09:35:22,15.08846268,0.0001714,53.217,317.8446,81.0072,279.1114,0.00048292,7.407e-05,0.0,0 STARLINK-3386,1 51126U 22005Y   23278.39956521  .00007407  00000-0  48292-3 0  9992,2 51126  53.2170 317.8446 0001714  81.0072 279.1114 15.08846268 96052,6917.861,95.437,540.912,538.541,0.0
51126.0,STARLINK-3386,PAYLOAD,2023-10-05 19:07:41,15.08837738,0.0001628,53.217,316.0587,83.7071,276.4106,0.00033408,5.033e-05,0.0,0 STARLINK-3386,1 51126U 22005Y   23278.79700770  .00005033  00000-0  33408-3 0  9995,2 51126  53.2170 316.0587 0001628  83.7071 276.4106 15.08837738 96111,6917.887,95.438,540.879,538.626,0.0
51126.0,STARLINK-3386,PAYLOAD,2023-10-06 09:26:09,15.08853082,0.0001499,53.2166,313.3831,83.6774,276.4388,0.0011891,0.00018694,0.0,0 STARLINK-3386,1 51126U 22005Y   23279.39316486  .00018694  00000-0  11891-2 0  9997,2 51126  53.2166 313.3831 0001499  83.6774 276.4388 15.08853082 96205,6917.84,95.437,540.742,538.668,0.0
51126.0,STARLINK-3386,PAYLOAD,2023-10-06 11:01:32,15.08858334,0.0001582,53.2165,313.0854,91.6733,268.444,0.001586,0.00025056,0.0,0 STARLINK-3386,1 51126U 22005Y   23279.45940456  .00025056  00000-0  15860-2 0  9994,2 51126  53.2165 313.0854 0001582  91.6733 268.4440 15.08858334 95106,6917.824,95.436,540.784,538.595,0.0
51126.0,STARLINK-3386,PAYLOAD,2023-10-06 18:58:28,15.08851994,0.0001669,53.2166,311.599,87.2963,272.822,0.00099666,0.00015615,0.0,0 STARLINK-3386,1 51126U 22005Y   23279.79060621  .00015615  00000-0  99666-3 0  9995,2 51126  53.2166 311.5990 0001669  87.2963 272.8220 15.08851994 96261,6917.844,95.437,540.863,538.554,0.0
51126.0,STARLINK-3386,PAYLOAD,2023-10-07 07:41:33,15.08838386,0.0001667,53.2168,309.2198,97.0082,263.11,0.000475,7.279e-05,0.0,0 STARLINK-3386,1 51126U 22005Y   23280.32052718  .00007279  00000-0  47500-3 0  9991,2 51126  53.2168 309.2198 0001667  97.0082 263.1100 15.08838386 96345,6917.885,95.438,540.904,538.597,0.0
51126.0,STARLINK-3386,PAYLOAD,2023-10-07 12:27:42,15.08850218,0.0001651,53.2167,308.3275,92.4418,267.6764,0.00054706,8.432e-05,0.0,0 STARLINK-3386,1 51126U 22005Y   23280.51924489  .00008432  00000-0  54706-3 0  9993,2 51126  53.2167 308.3275 0001651  92.4418 267.6764 15.08850218 95268,6917.849,95.437,540.856,538.572,0.0
51126.0,STARLINK-3386,PAYLOAD,2023-10-07 18:49:15,15.08838862,0.0001842,53.2161,307.1382,87.125,272.9953,0.00028045,4.178e-05,0.0,0 STARLINK-3386,1 51126U 22005Y   23280.78420820  .00004178  00000-0  28045-3 0  9992,2 51126  53.2161 307.1382 0001842  87.1250 272.9953 15.08838862 95300,6917.884,95.438,541.023,538.475,0.0
51126.0,STARLINK-3386,PAYLOAD,2023-10-08 09:07:44,15.08838208,0.0001535,53.2159,304.4626,98.9739,261.1427,0.00034114,5.145e-05,0.0,0 STARLINK-3386,1 51126U 22005Y   23281.38037050  .00005145  00000-0  34114-3 0  9997,2 51126  53.2159 304.4626 0001535  98.9739 261.1427 15.08838208 96502,6917.886,95.438,540.813,538.689,0.0
51126.0,STARLINK-3386,PAYLOAD,2023-10-08 10:43:07,15.08834325,0.0001754,53.2161,304.1657,94.3659,265.7533,0.00022947,3.365e-05,0.0,0 STARLINK-3386,1 51126U 22005Y   23281.44661205  .00003365  00000-0  22947-3 0  9992,2 51126  53.2161 304.1657 0001754  94.3659 265.7533 15.08834325 95402,6917.898,95.438,540.976,538.549,0.0
51126.0,STARLINK-3386,PAYLOAD,2023-10-08 18:40:03,15.08835359,0.0001751,53.216,302.6787,93.3103,266.8089,0.00014344,1.995e-05,0.0,0 STARLINK-3386,1 51126U 22005Y   23281.77781393  .00001995  00000-0  14344-3 0  9998,2 51126  53.2160 302.6787 0001751  93.3103 266.8089 15.08835359 95459,6917.895,95.438,540.971,538.548,0.0
51126.0,STARLINK-3386,PAYLOAD,2023-10-09 01:01:35,15.08837076,0.0001542,53.2151,301.4874,90.1906,269.9263,0.00018295,2.625e-05,0.0,0 STARLINK-3386,1 51126U 22005Y   23282.04277368  .00002625  00000-0  18295-3 0  9991,2 51126  53.2151 301.4874 0001542  90.1906 269.9263 15.08837076 96601,6917.889,95.438,540.821,538.688,0.0
51126.0,STARLINK-3386,PAYLOAD,2023-10-09 08:58:31,15.08847874,0.0001599,53.215,300.0007,98.6223,261.4951,0.00044586,6.816e-05,0.0,0 STARLINK-3386,1 51126U 22005Y   23282.37397117  .00006816  00000-0  44586-3 0  9990,2 51126  53.2150 300.0007 0001599  98.6223 261.4951 15.08847874 95540,6917.856,95.437,540.827,538.615,0.0
51126.0,STARLINK-3386,PAYLOAD,2023-10-09 13:44:40,15.08853307,0.000165,53.2147,299.1082,90.3342,269.7839,0.00069188,0.00010744,0.0,0 STARLINK-3386,1 51126U 22005Y   23282.57269033  .00010744  00000-0  69188-3 0  9997,2 51126  53.2147 299.1082 0001650  90.3342 269.7839 15.08853307 96686,6917.84,95.437,540.846,538.563,0.0
51126.0,STARLINK-3386,PAYLOAD,2023-10-10 00:52:22,15.08836252,0.0001635,53.2152,297.0283,80.4462,279.6715,7.0941e-05,8.41e-06,0.0,0 STARLINK-3386,1 51126U 22005Y   23283.03637544  .00000841  00000-0  70941-4 0  9992,2 51126  53.2152 297.0283 0001635  80.4462 279.6715 15.08836252 96759,6917.892,95.438,540.888,538.626,0.0
51126.0,STARLINK-3386,PAYLOAD,2023-10-10 10:24:41,15.08854609,0.0001735,53.215,295.2429,92.8942,267.2249,0.0007971,0.00012426,0.0,0 STARLINK-3386,1 51126U 22005Y   23283.43381105  .00012426  00000-0  79710-3 0  9999,2 51126  53.2150 295.2429 0001735  92.8942 267.2249 15.08854609 96818,6917.836,95.437,540.901,538.5,0.0
51126.0,STARLINK-3386,PAYLOAD,2023-10-10 18:21:37,15.08845386,0.0001842,53.2172,293.7537,104.2571,255.8626,0.00053065,8.169e-05,0.0,0 STARLINK-3386,1 51126U 22005Y   23283.76501259  .00008169  00000-0  53065-3 0  9993,2 51126  53.2172 293.7537 0001842 104.2571 255.8626 15.08845386 96869,6917.864,95.437,541.003,538.455,0.0
51126.0,STARLINK-3386,PAYLOAD,2023-10-11 11:50:51,15.08857785,0.0001803,53.2161,290.4838,94.6609,265.4589,0.00046224,7.08e-05,0.0,0 STARLINK-3386,1 51126U 22005Y   23284.49364606  .00007080  00000-0  46224-3 0  9997,2 51126  53.2161 290.4838 0001803  94.6609 265.4589 15.08857785 95866,6917.826,95.436,540.938,538.444,0.0
51126.0,STARLINK-3386,PAYLOAD,2023-10-11 18:12:24,15.08827483,0.0001801,53.2164,289.294,98.5975,261.5221,-0.00018555,-3.239e-05,0.0,0 STARLINK-3386,1 51126U 22005Y   23284.75861718 -.00003239  00000-0 -18555-3 0  9992,2 51126  53.2164 289.2940 0001801  98.5975 261.5221 15.08827483 97017,6917.919,95.438,541.03,538.538,0.0
51126.0,STARLINK-3386,PAYLOAD,2023-10-12 11:41:38,15.08846932,0.0001509,53.2165,286.0238,93.6831,266.4334,0.00097545,0.00015273,0.0,0 STARLINK-3386,1 51126U 22005Y   23285.48725475  .00015273  00000-0  97545-3 0  9997,2 51126  53.2165 286.0238 0001509  93.6831 266.4334 15.08846932 96013,6917.859,95.437,540.768,538.68,0.0
51126.0,STARLINK-3386,PAYLOAD,2023-10-13 03:35:30,15.08844628,0.0001594,53.2158,283.0498,100.6795,259.4377,0.00070405,0.00010936,0.0,0 STARLINK-3386,1 51126U 22005Y   23286.14965860  .00010936  00000-0  70405-3 0  9992,2 51126  53.2158 283.0498 0001594 100.6795 259.4377 15.08844628 97225,6917.866,95.437,540.834,538.629,0.0
51126.0,STARLINK-3386,PAYLOAD,2023-10-13 06:46:16,15.08853611,0.0001633,53.2163,282.4561,87.1557,272.9622,0.001018,0.00015957,0.0,0 STARLINK-3386,1 51126U 22005Y   23286.28213805  .00015957  00000-0  10180-2 0  9993,2 51126  53.2163 282.4561 0001633  87.1557 272.9622 15.08853611 96138,6917.839,95.437,540.833,538.574,0.0
51126.0,STARLINK-3386,PAYLOAD,2023-10-14 05:01:40,15.088592,0.0001423,53.2152,278.2954,88.5872,271.5283,0.00088551,0.0001384,0.0,0 STARLINK-3386,1 51126U 22005Y   23287.20949475  .00013840  00000-0  88551-3 0  9992,2 51126  53.2152 278.2954 0001423  88.5872 271.5283 15.08859200 97383,6917.822,95.436,540.671,538.702,0.0
51126.0,STARLINK-3386,PAYLOAD,2023-10-14 06:37:03,15.08862218,0.0001462,53.2156,277.9957,85.0311,275.0848,0.0011926,0.00018755,0.0,0 STARLINK-3386,1 51126U 22005Y   23287.27573397  .00018755  00000-0  11926-2 0  9996,2 51126  53.2156 277.9957 0001462  85.0311 275.0848 15.08862218 96286,6917.812,95.436,540.689,538.666,0.0
51126.0,STARLINK-3386,PAYLOAD,2023-10-14 22:30:55,15.08843603,0.0001758,53.216,275.0225,97.9669,262.1522,0.0004467,6.829e-05,0.0,0 STARLINK-3386,1 51126U 22005Y   23287.93813720  .00006829  00000-0  44670-3 0  9998,2 51126  53.2160 275.0225 0001758  97.9669 262.1522 15.08843603 96388,6917.869,95.437,540.951,538.518,0.0
51126.0,STARLINK-3386,PAYLOAD,2023-10-15 04:52:28,15.08819949,0.0001352,53.2153,273.8319,91.344,268.7707,-0.00036146,-6.033e-05,0.0,0 STARLINK-3386,1 51126U 22005Y   23288.20310232 -.00006033  00000-0 -36146-3 0  9997,2 51126  53.2153 273.8319 0001352  91.3440 268.7707 15.08819949 97536,6917.942,95.439,540.742,538.871,0.0
51126.0,STARLINK-3386,PAYLOAD,2023-10-15 08:03:14,15.08827705,0.0001338,53.2154,273.2375,86.549,273.5655,-0.00014417,-2.581e-05,0.0,0 STARLINK-3386,1 51126U 22005Y   23288.33558446 -.00002581  00000-0 -14417-3 0  9993,2 51126  53.2154 273.2375 0001338  86.5490 273.5655 15.08827705 96442,6917.918,95.438,540.709,538.857,0.0
